SINAH 1                 
1 28893U 05043D   17346.51024612  .00000017  00000-0  12355-4 0  9992
2 28893  97.8954 136.3345 0014206 314.3778  45.6260 14.61458769646498
